TDRS 12                 
1 39504U 14004A   26062.79230183 -.00000281  00000+0  00000+0 0  9999
2 39504   3.8752  17.2290 0003953 267.2789 121.3771  1.00270286 43229
ABS-2                   
1 39508U 14006A   26062.76765965 -.00000099  00000+0  00000+0 0  9990
2 39508   0.0503 274.2202 0003050  62.0279 176.5281  1.00271912 44223
ATHENA-FIDUS            
1 39509U 14006B   26062.80790189  .00000140  00000+0  00000+0 0  9998
2 39509   0.0300 111.1273 0001683 247.8573 131.2028  1.00271450 44039
TURKSAT 4A              
1 39522U 14007A   26062.66611449  .00000132  00000+0  00000+0 0  9990
2 39522   0.0705 290.9290 0004279  18.6946 133.5725  1.00270721 43904
CZ-3C DEB               
1 39600U 10057X   26061.41167124  .00000445  00000+0  21508-2 0  9992
2 39600  20.3246  11.2909 7235225 329.3274   3.4832  2.25319484100835
EXPRESS-AT1             
1 39612U 14010A   26062.17391823  .00000061  00000+0  00000+0 0  9992
2 39612   0.0182 234.3603 0000462 182.8711 222.3054  1.00286556 43755
EXPRESS-AT2             
1 39613U 14010B   26062.82815645  .00000000  00000+0  00000+0 0  9991
2 39613   0.0217 159.8822 0001171 109.6650 330.0401  1.00270363 43444
BREEZE-M R/B            
1 39614U 14010C   26062.12030287 -.00000178  00000+0  00000+0 0  9993
2 39614  10.6964  60.1701 0671899  49.6025 316.2010  0.90579875 39546
AMAZONAS 4A             
1 39616U 14011A   26062.78562846 -.00000266  00000+0  00000+0 0  9997
2 39616   0.0587 158.0529 0002685 159.6113  52.7007  1.00271325 43654
ASTRA 5B                
1 39617U 14011B   26062.80512854  .00000123  00000+0  00000+0 0  9996
2 39617   0.0923 298.2159 0004176  26.4659 150.1995  1.00270604 43612
IRNSS-1B                
1 39635U 14017A   26062.54882074  .00000102  00000+0  00000+0 0  9994
2 39635  29.1127 242.2056 0021171 179.2461 352.3815  1.00270890 43734
CTS DEB [ARRAY COVER]   
1 39688U 76004E   26062.49112667 -.00000005  00000+0  00000+0 0  9997
2 39688   3.5042 267.9697 0033319 166.8396 141.5060  1.00304143 41710
CTS DEB [ARRAY COVER]   
1 39689U 76004F   26058.53695884 -.00000298  00000+0  00000+0 0  9999
2 39689   3.5480 268.8015 0164821  63.2161 298.2693  1.00281244 65796
LUCH-5V                 
1 39727U 14023A   26062.58232287 -.00000280  00000+0  00000+0 0  9990
2 39727   4.8727  70.7815 0002985 276.2350 118.6917  1.00271930 43301
KAZSAT-3                
1 39728U 14023B   26062.76414000  .00000047  00000+0  00000+0 0  9996
2 39728   0.0303  57.3544 0000415 357.2804  80.4639  1.00271765 41402
BREEZE-M R/B            
1 39729U 14023C   26061.87909908 -.00000182  00000+0  00000+0 0  9995
2 39729   9.8557  54.0475 0645611 198.5832 159.0953  0.92543814 39998
EUTELSAT 3B             
1 39773U 14030A   26062.80105520  .00000006  00000+0  00000+0 0  9998
2 39773   0.0656 335.0159 0001148 286.9001 191.1148  1.00273864 43018
